{
  "type": "FeatureCollection",
  "features": [
    {
      "type": "Feature",
      "properties": {
        "norad_id": 43647,
        "name": "BEIDOU-3 M16 (C35)",
        "group": "gnss",
        "lat": 20.17819900979733,
        "lon": -38.12640090138113,
        "alt_km": 21505.798397808237,
        "timestamp": "2025-12-11T15:53:39.785587+00:00",
        "meta_object_name": "BEIDOU-3 M16 (C35)",
        "meta_object_id": "2018-078A",
        "meta_epoch": "2025-12-08T22:33:41.935680",
        "meta_mean_motion": 1.86232209,
        "meta_eccentricity": 0.0007116,
        "meta_inclination": 54.2656,
        "meta_ra_of_asc_node": 306.6541,
        "meta_arg_of_pericenter": 19.0293,
        "meta_mean_anomaly": 340.9862,
        "meta_ephemeris_type": 0,
        "meta_classification_type": "U",
        "meta_norad_cat_id": 43647,
        "meta_element_set_no": 999,
        "meta_rev_at_epoch": 4861,
        "meta_bstar": 0,
        "meta_mean_motion_dot": -7.5e-07,
        "meta_mean_motion_ddot": 0,
        "tle_line1": "1 43647U 18078A   25342.94006870 -.00000075  00000+0  00000+0 0  9999",
        "tle_line2": "2 43647  54.2656 306.6541 0007116  19.0293 340.9862  1.86232209 48612"
      },
      "geometry": {
        "type": "Point",
        "coordinates": [
          -38.12640090138113,
          20.17819900979733
        ]
      }
    },
    {
      "type": "Feature",
      "properties": {
        "norad_id": 43648,
        "name": "BEIDOU-3 M15 (C34)",
        "group": "gnss",
        "lat": -45.53020995558275,
        "lon": -100.60263802417438,
        "alt_km": 21531.32066025839,
        "timestamp": "2025-12-11T15:53:39.785608+00:00",
        "meta_object_name": "BEIDOU-3 M15 (C34)",
        "meta_object_id": "2018-078B",
        "meta_epoch": "2025-12-09T14:32:59.144640",
        "meta_mean_motion": 1.86231871,
        "meta_eccentricity": 0.0003622,
        "meta_inclination": 54.2606,
        "meta_ra_of_asc_node": 306.6314,
        "meta_arg_of_pericenter": 18.0065,
        "meta_mean_anomaly": 341.9965,
        "meta_ephemeris_type": 0,
        "meta_classification_type": "U",
        "meta_norad_cat_id": 43648,
        "meta_element_set_no": 999,
        "meta_rev_at_epoch": 4864,
        "meta_bstar": 0,
        "meta_mean_motion_dot": -7.7e-07,
        "meta_mean_motion_ddot": 0,
        "tle_line1": "1 43648U 18078B   25343.60624010 -.00000077  00000+0  00000+0 0  9998",
        "tle_line2": "2 43648  54.2606 306.6314 0003622  18.0065 341.9965  1.86231871 48642"
      },
      "geometry": {
        "type": "Point",
        "coordinates": [
          -100.60263802417438,
          -45.53020995558275
        ]
      }
    },
    {
      "type": "Feature",
      "properties": {
        "norad_id": 43683,
        "name": "BEIDOU-3 G1 (C59)",
        "group": "gnss",
        "lat": -0.16101850808455212,
        "lon": 99.087584001545,
        "alt_km": 35783.57814276575,
        "timestamp": "2025-12-11T15:53:39.785620+00:00",
        "meta_object_name": "BEIDOU-3 G1 (C59)",
        "meta_object_id": "2018-085A",
        "meta_epoch": "2025-12-11T05:37:00.143616",
        "meta_mean_motion": 1.00271051,
        "meta_eccentricity": 0.00018146,
        "meta_inclination": 2.604,
        "meta_ra_of_asc_node": 103.0209,
        "meta_arg_of_pericenter": 64.6555,
        "meta_mean_anomaly": 136.8427,
        "meta_ephemeris_type": 0,
        "meta_classification_type": "U",
        "meta_norad_cat_id": 43683,
        "meta_element_set_no": 999,
        "meta_rev_at_epoch": 2617,
        "meta_bstar": 0,
        "meta_mean_motion_dot": -2.71e-06,
        "meta_mean_motion_ddot": 0,
        "tle_line1": "1 43683U 18085A   25345.23402944 -.00000271  00000+0  00000+0 0  9992",
        "tle_line2": "2 43683   2.6040 103.0209 0001814  64.6555 136.8427  1.00271051 26172"
      },
      "geometry": {
        "type": "Point",
        "coordinates": [
          99.087584001545,
          -0.16101850808455212
        ]
      }
    },
    {
      "type": "Feature",
      "properties": {
        "norad_id": 43687,
        "name": "COSMOS 2529 (757)",
        "group": "gnss",
        "lat": 34.063990676443446,
        "lon": -0.08059525824176719,
        "alt_km": 19133.123258896874,
        "timestamp": "2025-12-11T15:53:39.785631+00:00",
        "meta_object_name": "COSMOS 2529 (757)",
        "meta_object_id": "2018-086A",
        "meta_epoch": "2025-12-10T01:40:33.584160",
        "meta_mean_motion": 2.13101882,
        "meta_eccentricity": 0.00072869,
        "meta_inclination": 64.2919,
        "meta_ra_of_asc_node": 198.9786,
        "meta_arg_of_pericenter": 254.1993,
        "meta_mean_anomaly": 105.7913,
        "meta_ephemeris_type": 0,
        "meta_classification_type": "U",
        "meta_norad_cat_id": 43687,
        "meta_element_set_no": 999,
        "meta_rev_at_epoch": 5525,
        "meta_bstar": 0,
        "meta_mean_motion_dot": 4.4e-07,
        "meta_mean_motion_ddot": 0,
        "tle_line1": "1 43687U 18086A   25344.06983315  .00000044  00000+0  00000+0 0  9990",
        "tle_line2": "2 43687  64.2919 198.9786 0007286 254.1993 105.7913  2.13101882 55254"
      },
      "geometry": {
        "type": "Point",
        "coordinates": [
          -0.08059525824176719,
          34.063990676443446
        ]
      }
    },
    {
      "type": "Feature",
      "properties": {
        "norad_id": 43706,
        "name": "BEIDOU-3 M17 (C36)",
        "group": "gnss",
        "lat": -9.7980785373516,
        "lon": 15.831957431095073,
        "alt_km": 21537.23032208331,
        "timestamp": "2025-12-11T15:53:39.785645+00:00",
        "meta_object_name": "BEIDOU-3 M17 (C36)",
        "meta_object_id": "2018-093A",
        "meta_epoch": "2025-12-10T13:45:05.408064",
        "meta_mean_motion": 1.86228361,
        "meta_eccentricity": 0.00062551,
        "meta_inclination": 54.1726,
        "meta_ra_of_asc_node": 188.6952,
        "meta_arg_of_pericenter": 307.2652,
        "meta_mean_anomaly": 234.6216,
        "meta_ephemeris_type": 0,
        "meta_classification_type": "U",
        "meta_norad_cat_id": 43706,
        "meta_element_set_no": 999,
        "meta_rev_at_epoch": 4802,
        "meta_bstar": 0,
        "meta_mean_motion_dot": 5.7e-07,
        "meta_mean_motion_ddot": 0,
        "tle_line1": "1 43706U 18093A   25344.57297926  .00000057  00000+0  00000+0 0  9996",
        "tle_line2": "2 43706  54.1726 188.6952 0006255 307.2652 234.6216  1.86228361 48024"
      },
      "geometry": {
        "type": "Point",
        "coordinates": [
          15.831957431095073,
          -9.7980785373516
        ]
      }
    },
    {
      "type": "Feature",
      "properties": {
        "norad_id": 43707,
        "name": "BEIDOU-3 M18 (C37)",
        "group": "gnss",
        "lat": -51.53663022894107,
        "lon": 123.21898476488782,
        "alt_km": 21527.19777292782,
        "timestamp": "2025-12-11T15:53:39.785657+00:00",
        "meta_object_name": "BEIDOU-3 M18 (C37)",
        "meta_object_id": "2018-093B",
        "meta_epoch": "2025-12-09T02:08:32.306784",
        "meta_mean_motion": 1.86226655,
        "meta_eccentricity": 0.00062934,
        "meta_inclination": 54.1729,
        "meta_ra_of_asc_node": 188.7377,
        "meta_arg_of_pericenter": 351.6926,
        "meta_mean_anomaly": 8.358,
        "meta_ephemeris_type": 0,
        "meta_classification_type": "U",
        "meta_norad_cat_id": 43707,
        "meta_element_set_no": 999,
        "meta_rev_at_epoch": 4799,
        "meta_bstar": 0,
        "meta_mean_motion_dot": 4.9e-07,
        "meta_mean_motion_ddot": 0,
        "tle_line1": "1 43707U 18093B   25343.08926281  .00000049  00000+0  00000+0 0  9996",
        "tle_line2": "2 43707  54.1729 188.7377 0006293 351.6926   8.3580  1.86226655 47998"
      },
      "geometry": {
        "type": "Point",
        "coordinates": [
          123.21898476488782,
          -51.53663022894107
        ]
      }
    },
    {
      "type": "Feature",
      "properties": {
        "norad_id": 43873,
        "name": "GPS BIII-1  (PRN 04)",
        "group": "gnss",
        "lat": 55.27214734556479,
        "lon": -179.04368931002674,
        "alt_km": 20209.726348967677,
        "timestamp": "2025-12-11T15:53:39.785668+00:00",
        "meta_object_name": "GPS BIII-1  (PRN 04)",
        "meta_object_id": "2018-109A",
        "meta_epoch": "2025-12-10T13:28:44.931360",
        "meta_mean_motion": 2.00553503,
        "meta_eccentricity": 0.00372579,
        "meta_inclination": 55.5664,
        "meta_ra_of_asc_node": 99.6325,
        "meta_arg_of_pericenter": 194.8351,
        "meta_mean_anomaly": 175.9534,
        "meta_ephemeris_type": 0,
        "meta_classification_type": "U",
        "meta_norad_cat_id": 43873,
        "meta_element_set_no": 999,
        "meta_rev_at_epoch": 5129,
        "meta_bstar": 0,
        "meta_mean_motion_dot": 8e-08,
        "meta_mean_motion_ddot": 0,
        "tle_line1": "1 43873U 18109A   25344.56163115  .00000008  00000+0  00000+0 0  9996",
        "tle_line2": "2 43873  55.5664  99.6325 0037257 194.8351 175.9534  2.00553503 51291"
      },
      "geometry": {
        "type": "Point",
        "coordinates": [
          -179.04368931002674,
          55.27214734556479
        ]
      }
    }
  ]
}